{"type": "FeatureCollection", "features": [ {"type": "Feature", "properties": {"norad_id": 39620, "name": "COSMOS 2492 (754)", "group": "gnss", "lat": 11.610051603280144, "lon": 134.8775714330874, "alt_km": 19158.223881167396, "timestamp": "2025-12-12T07:43:20.755775+00:00", "meta": {"OBJECT_NAME": "COSMOS 2492 (754)", "OBJECT_ID": "2014-012A", "EPOCH": "2025-12-11T15:13:27.039936", "MEAN_MOTION": 2.13102949, "ECCENTRICITY": 0.00142133, "INCLINATION": 65.4084, "RA_OF_ASC_NODE": 320.3085, "ARG_OF_PERICENTER": 311.3676, "MEAN_ANOMALY": 48.5095, "EPHEMERIS_TYPE": 0, "CLASSIFICATION_TYPE": "U", "NORAD_CAT_ID": 39620, "ELEMENT_SET_NO": 999, "REV_AT_EPOCH": 9124, "BSTAR": 0, "MEAN_MOTION_DOT": -5.3e-07, "MEAN_MOTION_DDOT": 0}, "tle": {"line1": "1 39620U 14012A   25345.63434074 -.00000053  00000+0  00000+0 0  9995", "line2": "2 39620  65.4084 320.3085 0014213 311.3676  48.5095  2.13102949 91246"}}, "geometry": {"type": "Point", "coordinates": [134.8775714330874, 11.610051603280144]}}, {"type": "Feature", "properties": {"norad_id": 39635, "name": "IRNSS-1B", "group": "gnss", "lat": 4.135253510553739, "lon": -108.82324970929567, "alt_km": 35858.33219729841, "timestamp": "2025-12-12T07:43:20.755787+00:00", "meta": {"OBJECT_NAME": "IRNSS-1B", "OBJECT_ID": "2014-017A", "EPOCH": "2025-12-07T19:02:08.350080", "MEAN_MOTION": 1.00276938, "ECCENTRICITY": 0.00176548, "INCLINATION": 28.8332, "RA_OF_ASC_NODE": 243.6763, "ARG_OF_PERICENTER": 183.0277, "MEAN_ANOMALY": 350.7455, "EPHEMERIS_TYPE": 0, "CLASSIFICATION_TYPE": "U", "NORAD_CAT_ID": 39635, "ELEMENT_SET_NO": 999, "REV_AT_EPOCH": 4287, "BSTAR": 0, "MEAN_MOTION_DOT": 1.18e-06, "MEAN_MOTION_DDOT": 0}, "tle": {"line1": "1 39635U 14017A   25341.79315220  .00000118  00000+0  00000+0 0  9991", "line2": "2 39635  28.8332 243.6763 0017654 183.0277 350.7455  1.00276938 42872"}}, "geometry": {"type": "Point", "coordinates": [-108.82324970929567, 4.135253510553739]}}, {"type": "Feature", "properties": {"norad_id": 39727, "name": "LUCH 5V (SDCM/PRN 141)", "group": "gnss", "lat": -3.0341540675422705, "lon": -68.22482352420005, "alt_km": 35768.44089706381, "timestamp": "2025-12-12T07:43:20.755799+00:00", "meta": {"OBJECT_NAME": "LUCH 5V (SDCM/PRN 141)", "OBJECT_ID": "2014-023A", "EPOCH": "2025-12-11T20:34:48.654912", "MEAN_MOTION": 1.00269224, "ECCENTRICITY": 0.00046258, "INCLINATION": 4.6674, "RA_OF_ASC_NODE": 71.5449, "ARG_OF_PERICENTER": 204.4756, "MEAN_ANOMALY": 208.2464, "EPHEMERIS_TYPE": 0, "CLASSIFICATION_TYPE": "U", "NORAD_CAT_ID": 39727, "ELEMENT_SET_NO": 999, "REV_AT_EPOCH": 4248, "BSTAR": 0, "MEAN_MOTION_DOT": -2.61e-06, "MEAN_MOTION_DDOT": 0}, "tle": {"line1": "1 39727U 14023A   25345.85750758 -.00000261  00000+0  00000+0 0  9990", "line2": "2 39727   4.6674  71.5449 0004625 204.4756 208.2464  1.00269224 42482"}}, "geometry": {"type": "Point", "coordinates": [-68.22482352420005, -3.0341540675422705]}}, {"type": "Feature", "properties": {"norad_id": 39741, "name": "GPS BIIF-6  (PRN 06)", "group": "gnss", "lat": -43.15458695330344, "lon": -162.97377926550732, "alt_km": 20175.27309514635, "timestamp": "2025-12-12T07:43:20.755813+00:00", "meta": {"OBJECT_NAME": "GPS BIIF-6  (PRN 06)", "OBJECT_ID": "2014-026A", "EPOCH": "2025-12-11T11:55:13.475136", "MEAN_MOTION": 2.00561432, "ECCENTRICITY": 0.00391541, "INCLINATION": 56.584, "RA_OF_ASC_NODE": 338.8247, "ARG_OF_PERICENTER": 318.6056, "MEAN_ANOMALY": 41.1101, "EPHEMERIS_TYPE": 0, "CLASSIFICATION_TYPE": "U", "NORAD_CAT_ID": 39741, "ELEMENT_SET_NO": 999, "REV_AT_EPOCH": 8477, "BSTAR": 0, "MEAN_MOTION_DOT": -8.5e-07, "MEAN_MOTION_DDOT": 0}, "tle": {"line1": "1 39741U 14026A   25345.49668374 -.00000085  00000+0  00000+0 0  9995", "line2": "2 39741  56.5840 338.8247 0039154 318.6056  41.1101  2.00561432 84777"}}, "geometry": {"type": "Point", "coordinates": [-162.97377926550732, -43.15458695330344]}}, {"type": "Feature", "properties": {"norad_id": 40001, "name": "COSMOS 2500 (755)", "group": "gnss", "lat": 31.59936768776282, "lon": -23.553215803627413, "alt_km": 19147.125129354004, "timestamp": "2025-12-12T07:43:20.755825+00:00", "meta": {"OBJECT_NAME": "COSMOS 2500 (755)", "OBJECT_ID": "2014-032A", "EPOCH": "2025-12-09T11:02:48.490944", "MEAN_MOTION": 2.13105796, "ECCENTRICITY": 0.000831, "INCLINATION": 65.3451, "RA_OF_ASC_NODE": 320.1442, "ARG_OF_PERICENTER": 219.1348, "MEAN_ANOMALY": 140.802, "EPHEMERIS_TYPE": 0, "CLASSIFICATION_TYPE": "U", "NORAD_CAT_ID": 40001, "ELEMENT_SET_NO": 999, "REV_AT_EPOCH": 8941, "BSTAR": 0, "MEAN_MOTION_DOT": -4.9e-07, "MEAN_MOTION_DDOT": 0}, "tle": {"line1": "1 40001U 14032A   25343.46028346 -.00000049  00000+0  00000+0 0  9997", "line2": "2 40001  65.3451 320.1442 0008310 219.1348 140.8020  2.13105796 89418"}}, "geometry": {"type": "Point", "coordinates": [-23.553215803627413, 31.59936768776282]}}, {"type": "Feature", "properties": {"norad_id": 40105, "name": "GPS BIIF-7  (PRN 09)", "group": "gnss", "lat": 5.588975523749939, "lon": -87.98440868033616, "alt_km": 20128.854327184756, "timestamp": "2025-12-12T07:43:20.755836+00:00", "meta": {"OBJECT_NAME": "GPS BIIF-7  (PRN 09)", "OBJECT_ID": "2014-045A", "EPOCH": "2025-12-11T14:01:23.585664", "MEAN_MOTION": 2.00572456, "ECCENTRICITY": 0.00327154, "INCLINATION": 55.2284, "RA_OF_ASC_NODE": 95.945, "ARG_OF_PERICENTER": 119.8377, "MEAN_ANOMALY": 240.477, "EPHEMERIS_TYPE": 0, "CLASSIFICATION_TYPE": "U", "NORAD_CAT_ID": 40105, "ELEMENT_SET_NO": 999, "REV_AT_EPOCH": 8231, "BSTAR": 0, "MEAN_MOTION_DOT": -5e-08, "MEAN_MOTION_DDOT": 0}, "tle": {"line1": "1 40105U 14045A   25345.58430076 -.00000005  00000+0  00000+0 0  9990", "line2": "2 40105  55.2284  95.9450 0032715 119.8377 240.4770  2.00572456 82313"}}, "geometry": {"type": "Point", "coordinates": [-87.98440868033616, 5.588975523749939]}}, {"type": "Feature", "properties": {"norad_id": 40128, "name": "GSAT0201 (GALILEO 5)", "group": "gnss", "lat": -24.19223752165967, "lon": -101.84145875334754, "alt_km": 25624.00430513435, "timestamp": "2025-12-12T07:43:20.755850+00:00", "meta": {"OBJECT_NAME": "GSAT0201 (GALILEO 5)", "OBJECT_ID": "2014-050A", "EPOCH": "2025-12-09T03:42:58.517280", "MEAN_MOTION": 1.8551953, "ECCENTRICITY": 0.164755, "INCLINATION": 49.0809, "RA_OF_ASC_NODE": 281.2097, "ARG_OF_PERICENTER": 172.1436, "MEAN_ANOMALY": 190.8359, "EPHEMERIS_TYPE": 0, "CLASSIFICATION_TYPE": "U", "NORAD_CAT_ID": 40128, "ELEMENT_SET_NO": 999, "REV_AT_EPOCH": 7479, "BSTAR": 0, "MEAN_MOTION_DOT": -7.1e-07, "MEAN_MOTION_DDOT": 0}, "tle": {"line1": "1 40128U 14050A   25343.15484395 -.00000071  00000+0  00000+0 0  9998", "line2": "2 40128  49.0809 281.2097 1647550 172.1436 190.8359  1.85519530 74797"}}, "geometry": {"type": "Point", "coordinates": [-101.84145875334754, -24.19223752165967]}}, {"type": "Feature", "properties": {"norad_id": 40129, "name": "GSAT0202 (GALILEO 6)", "group": "gnss", "lat": 31.274757068641748, "lon": 68.41670869718999, "alt_km": 17640.63855918115, "timestamp": "2025-12-12T07:43:20.755861+00:00", "meta": {"OBJECT_NAME": "GSAT0202 (GALILEO 6)", "OBJECT_ID": "2014-050B", "EPOCH": "2025-12-11T13:36:31.827456", "MEAN_MOTION": 1.85520366, "ECCENTRICITY": 0.16485158, "INCLINATION": 49.0938, "RA_OF_ASC_NODE": 280.195, "ARG_OF_PERICENTER": 172.988, "MEAN_ANOMALY": 189.677, "EPHEMERIS_TYPE": 0, "CLASSIFICATION_TYPE": "U", "NORAD_CAT_ID": 40129, "ELEMENT_SET_NO": 999, "REV_AT_EPOCH": 7700, "BSTAR": 0, "MEAN_MOTION_DOT": -9.2e-07, "MEAN_MOTION_DDOT": 0}, "tle": {"line1": "1 40129U 14050B   25345.56703504 -.00000092  00000+0  00000+0 0  9995", "line2": "2 40129  49.0938 280.1950 1648515 172.9880 189.6770  1.85520366 77009"}}, "geometry": {"type": "Point", "coordinates": [68.41670869718999, 31.274757068641748]}}, {"type": "Feature", "properties": {"norad_id": 40269, "name": "IRNSS-1C", "group": "gnss", "lat": -0.7919983075080868, "lon": -80.03898147895008, "alt_km": 35860.81483968834, "timestamp": "2025-12-12T07:43:20.755873+00:00", "meta": {"OBJECT_NAME": "IRNSS-1C", "OBJECT_ID": "2014-061A", "EPOCH": "2025-12-11T20:45:10.951776", "MEAN_MOTION": 1.00277482, "ECCENTRICITY": 0.00180867, "INCLINATION": 6.0386, "RA_OF_ASC_NODE": 92.6405, "ARG_OF_PERICENTER": 2.2813, "MEAN_ANOMALY": 20.0948, "EPHEMERIS_TYPE": 0, "CLASSIFICATION_TYPE": "U", "NORAD_CAT_ID": 40269, "ELEMENT_SET_NO": 999, "REV_AT_EPOCH": 4081, "BSTAR": 0, "MEAN_MOTION_DOT": -1.54e-06, "MEAN_MOTION_DDOT": 0}, "tle": {"line1": "1 40269U 14061A   25345.86471009 -.00000154  00000+0  00000+0 0  9996", "line2": "2 40269   6.0386  92.6405 0018086   2.2813  20.0948  1.00277482 40818"}}, "geometry": {"type": "Point", "coordinates": [-80.03898147895008, -0.7919983075080868]}}, {"type": "Feature", "properties": {"norad_id": 40294, "name": "GPS BIIF-8  (PRN 03)", "group": "gnss", "lat": -55.857413982954995, "lon": -67.52643107982966, "alt_km": 20346.064075660528, "timestamp": "2025-12-12T07:43:20.755886+00:00", "meta": {"OBJECT_NAME": "GPS BIIF-8  (PRN 03)", "OBJECT_ID": "2014-068A", "EPOCH": "2025-12-11T11:05:24.874944", "MEAN_MOTION": 2.00564727, "ECCENTRICITY": 0.00607772, "INCLINATION": 56.8569, "RA_OF_ASC_NODE": 38.1954, "ARG_OF_PERICENTER": 69.205, "MEAN_ANOMALY": 291.4964, "EPHEMERIS_TYPE": 0, "CLASSIFICATION_TYPE": "U", "NORAD_CAT_ID": 40294, "ELEMENT_SET_NO": 999, "REV_AT_EPOCH": 8144, "BSTAR": 0, "MEAN_MOTION_DOT": -9.3e-07, "MEAN_MOTION_DDOT": 0}, "tle": {"line1": "1 40294U 14068A   25345.46209346 -.00000093  00000+0  00000+0 0  9992", "line2": "2 40294  56.8569  38.1954 0060777  69.2050 291.4964  2.00564727 81444"}}, "geometry": {"type": "Point", "coordinates": [-67.52643107982966, -55.857413982954995]}}]}